SILVERSAT               
1 66909U 98067XV  26042.44477216  .00153545  00000+0  15839-2 0  9999
2 66909  51.6259 198.4045 0002455 272.0234  88.0479 15.63779460 11070
ISS OBJECT XW           
1 66910U 98067XW  26042.46281613  .00120044  00000+0  13239-2 0  9997
2 66910  51.6249 198.5199 0001518 308.9215  51.1644 15.62201503 11071
ISS OBJECT XX           
1 66911U 98067XX  26041.77415351  .00153398  00000+0  15123-2 0  9991
2 66911  51.6242 201.4179 0003113 297.9049  62.1630 15.64924245 10963
ISS OBJECT XY           
1 66912U 98067XY  26042.59479099  .00079626  00000+0  99237-3 0  9992
2 66912  51.6288 198.6600 0000320 244.0670 116.0289 15.59201207 11072
ISS OBJECT XZ           
1 67683U 98067XZ  26042.62820746  .00041158  00000+0  73127-3 0  9990
2 67683  51.6304 201.1284 0010783 102.2228 257.9969 15.49713606   745
GXIBA-1                 
1 67684U 98067YA  26042.62617992  .00072379  00000+0  12450-2 0  9998
2 67684  51.6305 201.1159 0012653  96.7363 263.5066 15.50357854   745
CORAL                   
1 67685U 98067YB  26042.62777105  .00046083  00000+0  81305-3 0  9991
2 67685  51.6306 201.1261 0012733  97.5927 262.6509 15.49836283   743
ISS OBJECT YC           
1 67686U 98067YC  26042.62744778  .00050665  00000+0  89044-3 0  9991
2 67686  51.6310 201.1247 0007775  73.6798 286.5046 15.49959251   746
LEOPARD                 
1 67687U 98067YD  26042.62795018  .00045329  00000+0  80285-3 0  9994
2 67687  51.6307 201.1270 0007854  75.3633 284.8226 15.49787740   668
ISS OBJECT YE           
1 67688U 98067YE  26042.62754114  .00049349  00000+0  86921-3 0  9996
2 67688  51.6309 201.1248 0007746  74.2001 285.9842 15.49908969   667
